NORAD_CAT_ID,OBJECT_NAME,OBJECT_TYPE,EPOCH,MEAN_MOTION,ECCENTRICITY,INCLINATION,RA_OF_ASC_NODE,ARG_OF_PERICENTER,MEAN_ANOMALY,BSTAR,MEAN_MOTION_DOT,MEAN_MOTION_DDOT,TLE_LINE0,TLE_LINE1,TLE_LINE2,SEMIMAJOR_AXIS,PERIOD,APOGEE,PERIGEE,DECAYED
55934.0,STARLINK-5927,PAYLOAD,2023-03-22 18:00:00,15.95063076,0.0039306,69.9998,167.7464,162.6694,299.5393,-0.0023131,-0.00975342,0.00029777,0 STARLINK-5927,1 55934U 23037W   23081.75001157 -.00975342  29777-3 -23131-2 0  9990,2 55934  69.9998 167.7464 0039306 162.6694 299.5393 15.95063076  1304,6666.276,90.279,314.343,261.938,0.0
55934.0,STARLINK-5927,PAYLOAD,2023-03-22 22:00:00,15.94770783,0.0036601,69.9997,167.2599,162.6759,176.168,-0.0025442,-0.01044061,0.00033665,0 STARLINK-5927,1 55934U 23037W   23081.91667824 -.01044061  33665-3 -25442-2 0  9991,2 55934  69.9997 167.2599 0036601 162.6759 176.1680 15.94770783  1302,6667.09,90.295,313.357,264.553,0.0
55934.0,STARLINK-5927,PAYLOAD,2023-03-23 06:00:00,15.94086821,0.0034051,70.0003,166.2882,163.7099,287.8531,-0.0025003,-0.00980003,0.00029738,0 STARLINK-5927,1 55934U 23037W   23082.25001157 -.00980003  29738-3 -25003-2 0  9993,2 55934  70.0003 166.2882 0034051 163.7099 287.8531 15.94086821  1378,6668.997,90.334,313.571,268.153,0.0
55934.0,STARLINK-5927,PAYLOAD,2023-03-23 14:00:01,15.93434206,0.0030124,70.0001,165.3176,164.5676,38.9879,-0.0026261,-0.00981413,0.00029618,0 STARLINK-5927,1 55934U 23037W   23082.58335648 -.00981413  29618-3 -26261-2 0  9994,2 55934  70.0001 165.3176 0030124 164.5676  38.9879 15.93434206  1305,6670.818,90.371,312.778,272.588,0.0
55934.0,STARLINK-5927,PAYLOAD,2023-03-24 17:00:11,15.91227765,0.0018099,69.9999,162.048,174.4457,356.6811,-0.0030001,-0.00971376,0.0002842,0 STARLINK-5927,1 55934U 23037W   23083.70846065 -.00971376  28420-3 -30001-2 0  9993,2 55934  69.9999 162.0480 0018099 174.4457 356.6811 15.91227765  1601,6676.983,90.496,310.933,286.763,0.0
55934.0,STARLINK-5927,PAYLOAD,2023-03-24 22:00:01,15.90861877,0.0015525,69.9998,161.4437,178.4429,104.9779,-0.0033289,-0.01052912,0.00032868,0 STARLINK-5927,1 55934U 23037W   23083.91668981 -.01052912  32868-3 -33289-2 0  9994,2 55934  69.9998 161.4437 0015525 178.4429 104.9779 15.90861877  1300,6678.007,90.517,310.239,289.504,0.0
55934.0,STARLINK-5927,PAYLOAD,2023-03-25 06:00:00,15.90188622,0.0012341,70.0005,160.478,187.3081,204.069,-0.0033315,-0.01014391,0.00030477,0 STARLINK-5927,1 55934U 23037W   23084.25001157 -.01014391  30477-3 -33315-2 0  9991,2 55934  70.0005 160.4780 0012341 187.3081 204.0690 15.90188622  1694,6679.892,90.555,310.0,293.513,0.0
55934.0,STARLINK-5927,PAYLOAD,2023-03-25 14:00:01,15.89518402,0.0010445,70.0001,159.513,197.7965,300.8185,-0.0033251,-0.00977133,0.00028252,0 STARLINK-5927,1 55934U 23037W   23084.58334491 -.00977133  28252-3 -33251-2 0  9995,2 55934  70.0001 159.5130 0010445 197.7965 300.8185 15.89518402  1748,6681.769,90.593,310.613,296.655,0.0
55934.0,STARLINK-5927,PAYLOAD,2023-03-25 22:00:00,15.88889622,0.0008654,69.9999,158.548,216.7602,28.2962,-0.0036034,-0.01024189,0.00030634,0 STARLINK-5927,1 55934U 23037W   23084.91667824 -.01024189  30634-3 -36034-2 0  9995,2 55934  69.9999 158.5480 0008654 216.7602  28.2962 15.88889622  1790,6683.532,90.629,311.181,299.613,0.0
55934.0,STARLINK-5927,PAYLOAD,2023-03-26 06:00:00,15.88245723,0.000849,69.9998,157.5849,239.5826,111.1377,-0.0037824,-0.0104095,0.00031374,0 STARLINK-5927,1 55934U 23037W   23085.25001157 -.01040950  31374-3 -37824-2 0  9998,2 55934  69.9998 157.5849 0008490 239.5826 111.1377 15.88245723  1853,6685.338,90.666,312.879,301.527,0.0
55934.0,STARLINK-5927,PAYLOAD,2023-03-26 22:00:01,15.86917383,0.0009066,69.9998,155.6613,267.4932,292.2903,-0.0038627,-0.00905723,0.0,0 STARLINK-5927,1 55934U 23037W   23085.91668981 -.00905723  00000-0 -38627-2 0  9993,2 55934  69.9998 155.6613 0009066 267.4932 292.2903 15.86917383  1952,6689.068,90.742,316.998,304.869,0.0
55934.0,STARLINK-5927,PAYLOAD,2023-03-27 14:00:01,15.85626077,0.0007776,70.0001,153.7415,271.5619,134.0081,-0.0042143,-0.00924323,0.0,0 STARLINK-5927,1 55934U 23037W   23086.58334491 -.00924323  00000-0 -42143-2 0  9998,2 55934  70.0001 153.7415 0007776 271.5619 134.0081 15.85626077  1308,6692.699,90.816,319.769,309.36,0.0
55934.0,STARLINK-5927,PAYLOAD,2023-03-27 22:00:00,15.84984309,0.0003809,70.0002,152.7822,272.2072,235.1137,-0.0044265,-0.00936645,0.0,0 STARLINK-5927,1 55934U 23037W   23086.91667824 -.00936645  00000-0 -44265-2 0  9991,2 55934  70.0002 152.7822 0003809 272.2072 235.1137 15.84984309  2113,6694.506,90.853,318.921,313.821,0.0
55934.0,STARLINK-5927,PAYLOAD,2023-03-28 14:00:01,15.83660633,0.0003709,70.0004,150.8679,269.7357,78.7581,-0.0045587,-0.00908181,0.0,0 STARLINK-5927,1 55934U 23037W   23087.58334491 -.00908181  00000-0 -45587-2 0  9998,2 55934  70.0004 150.8679 0003709 269.7357  78.7581 15.83660633  1304,6698.236,90.929,322.585,317.616,0.0
55934.0,STARLINK-5927,PAYLOAD,2023-03-28 22:00:00,15.83044888,0.0003742,70.0,149.9118,278.7428,169.1433,-0.0049826,-0.00958421,0.0,0 STARLINK-5927,1 55934U 23037W   23087.91667824 -.00958421  00000-0 -49826-2 0  9996,2 55934  70.0000 149.9118 0003742 278.7428 169.1433 15.83044888  1302,6699.973,90.964,324.345,319.33,0.0
55934.0,STARLINK-5927,PAYLOAD,2023-03-29 02:00:01,15.82681051,0.0003672,70.0003,149.4342,275.716,41.5991,-0.0047712,-0.00907445,0.0,0 STARLINK-5927,1 55934U 23037W   23088.08334491 -.00907445  00000-0 -47712-2 0  9998,2 55934  70.0003 149.4342 0003672 275.7160  41.5991 15.82681051  2302,6700.999,90.985,325.325,320.404,0.0
55934.0,STARLINK-5927,PAYLOAD,2023-03-29 14:00:01,15.81701512,0.0003567,70.0001,148.0026,270.127,14.2484,-0.0049807,-0.00904938,0.0,0 STARLINK-5927,1 55934U 23037W   23088.58334491 -.00904938  00000-0 -49807-2 0  9994,2 55934  70.0001 148.0026 0003567 270.1270  14.2484 15.81701512  1305,6703.766,91.041,328.022,323.239,0.0
55934.0,STARLINK-5927,PAYLOAD,2023-03-29 22:00:00,15.81045061,0.0003698,69.9999,147.0493,279.6081,101.831,-0.0050949,-0.00898576,0.0,0 STARLINK-5927,1 55934U 23037W   23088.91667824 -.00898576  00000-0 -50949-2 0  9999,2 55934  69.9999 147.0493 0003698 279.6081 101.8310 15.81045061  1305,6705.621,91.079,329.966,325.006,0.0
55934.0,STARLINK-5927,PAYLOAD,2023-03-30 00:00:00,15.80883812,0.0003596,69.9998,146.8115,278.5612,217.0206,-0.0051486,-0.00900977,0.0,0 STARLINK-5927,1 55934U 23037W   23089.00001157 -.00900977  00000-0 -51486-2 0  9997,2 55934  69.9998 146.8115 0003596 278.5612 217.0206 15.80883812  2440,6706.077,91.088,330.354,325.531,0.0
55934.0,STARLINK-5927,PAYLOAD,2023-03-30 22:00:00,15.79094732,0.0003603,70.0001,144.1951,272.7494,35.1804,-0.0056407,-0.00908474,0.0,0 STARLINK-5927,1 55934U 23037W   23089.91667824 -.00908474  00000-0 -56407-2 0  9994,2 55934  70.0001 144.1951 0003603 272.7494  35.1804 15.79094732  2592,6711.141,91.191,335.424,330.588,0.0
55934.0,STARLINK-5927,PAYLOAD,2023-03-31 22:00:00,15.7714832,0.0003631,70.0002,141.3494,282.1058,305.2716,-0.006264,-0.0092259,0.0,0 STARLINK-5927,1 55934U 23037W   23090.91667824 -.00922590  00000-0 -62640-2 0  9997,2 55934  70.0002 141.3494 0003631 282.1058 305.2716 15.77148320  2747,6716.662,91.304,340.966,336.088,0.0
55934.0,STARLINK-5927,PAYLOAD,2023-04-01 14:00:01,15.75828122,0.0003644,69.9999,139.4567,276.1393,133.6345,-0.0064518,-0.00898755,0.0,0 STARLINK-5927,1 55934U 23037W   23091.58334491 -.00898755  00000-0 -64518-2 0  9993,2 55934  69.9999 139.4567 0003644 276.1393 133.6345 15.75828122  1302,6720.413,91.381,344.727,339.829,0.0
55934.0,STARLINK-5927,PAYLOAD,2023-04-01 22:00:00,15.75178391,0.0003587,70.0002,138.5117,283.016,216.7781,-0.0066653,-0.00901979,0.0,0 STARLINK-5927,1 55934U 23037W   23091.91667824 -.00901979  00000-0 -66653-2 0  9994,2 55934  70.0002 138.5117 0003587 283.0160 216.7781 15.75178391  1309,6722.261,91.418,346.537,341.714,0.0
55934.0,STARLINK-5927,PAYLOAD,2023-04-02 08:00:01,15.74365452,0.0003775,70.0002,137.3319,283.9733,57.247,-0.0069439,-0.00906521,0.0,0 STARLINK-5927,1 55934U 23037W   23092.33334491 -.00906521  00000-0 -69439-2 0  9995,2 55934  70.0002 137.3319 0003775 283.9733  57.2470 15.74365452  2976,6724.574,91.465,348.978,343.901,0.0
55934.0,STARLINK-5927,PAYLOAD,2023-04-02 14:00:01,15.73874232,0.0003673,70.0,136.6249,279.2014,38.2886,-0.0070535,-0.00901866,0.0,0 STARLINK-5927,1 55934U 23037W   23092.58334491 -.00901866  00000-0 -70535-2 0  9998,2 55934  70.0000 136.6249 0003673 279.2014  38.2886 15.73874232  1301,6725.974,91.494,350.309,345.368,0.0
55934.0,STARLINK-5927,PAYLOAD,2023-04-02 22:00:00,15.73216717,0.0003823,70.0003,135.6825,286.343,118.8243,-0.0071922,-0.00894721,0.0,0 STARLINK-5927,1 55934U 23037W   23092.91667824 -.00894721  00000-0 -71922-2 0  9996,2 55934  70.0003 135.6825 0003823 286.3430 118.8243 15.73216717  1301,6727.848,91.532,352.285,347.14,0.0
55934.0,STARLINK-5927,PAYLOAD,2023-04-03 06:00:00,15.72568638,0.0003716,70.0002,134.7411,287.0994,204.9592,-0.0074618,-0.00901963,0.0,0 STARLINK-5927,1 55934U 23037W   23093.25001157 -.00901963  00000-0 -74618-2 0  9997,2 55934  70.0002 134.7411 0003716 287.0994 204.9592 15.72568638  3111,6729.696,91.57,354.062,349.06,0.0
55934.0,STARLINK-5927,PAYLOAD,2023-04-03 14:00:01,15.71915103,0.0003592,69.9952,133.7946,276.3152,301.8473,-0.0075794,-0.0089202,0.0,0 STARLINK-5927,1 55934U 23037W   23093.58334491 -.00892020  00000-0 -75794-2 0  9992,2 55934  69.9952 133.7946 0003592 276.3152 301.8473 15.71915103  1309,6731.561,91.608,355.844,351.008,0.0
55934.0,STARLINK-5927,PAYLOAD,2023-04-03 22:00:00,15.71227633,0.0003549,69.9954,132.8549,266.6161,36.8892,-0.0072885,-0.00838557,0.0,0 STARLINK-5927,1 55934U 23037W   23093.91667824 -.00838557  00000-0 -72885-2 0  9991,2 55934  69.9954 132.8549 0003549 266.6161  36.8892 15.71227633  3221,6733.524,91.648,357.779,353.0,0.0
